STARLINK-2156           
1 47742U 21017W   26058.23764695  .00000222  00000+0  19606-4 0  9999
2 47742  53.1592 242.7282 0000940  73.7028 286.4076 15.30193852276430
STARLINK-2380           
1 47799U 21018N   26058.05028348  .00001582  00000+0  12510-3 0  9996
2 47799  53.0541 279.3804 0001280  92.5644 267.5492 15.06399720275269
STARLINK-2429           
1 47838U 21018BD  26058.09345301  .00015691  00000+0  54151-3 0  9998
2 47838  53.1598 294.6603 0001766  74.5927 285.5269 15.30156522275064
STARLINK-2273           
1 47993U 21024S   26058.11123945  .00122215  00000+0  78619-2 0  9993
2 47993  53.0592 344.0977 0001398  93.9903 266.1246 15.07425198273524
STARLINK-2462           
1 48121U 21027AF  26057.78601520  .00002516  00000+0  97074-4 0  9991
2 48121  53.1611 205.5764 0001184  90.1204 269.9933 15.30192274270985
STARLINK-2558           
1 48282U 21036G   26058.18237272  .00000799  00000+0  39123-4 0  9995
2 48282  53.1616 124.1828 0001439  87.7322 272.3843 15.30196810266805
STARLINK-2457           
1 48321U 21036AX  26057.63468935  .00001005  00000+0  86358-4 0  9993
2 48321  53.0549 151.2501 0001217  87.4850 272.6278 15.06395526266363
STARLINK-2610           
1 48376U 21038Z   26058.23450761  .00005356  00000+0  19767-3 0  9992
2 48376  53.1564  36.3413 0001935 105.9995 254.1218 15.29380145265622
STARLINK-2699           
1 48433U 21040F   26057.91762105  .00000871  00000+0  77371-4 0  9994
2 48433  53.0539 200.2550 0001178  82.6979 277.4144 15.06397849265410
STARLINK-2722           
1 48472U 21040AW  26058.27444901  .00087148  00000+0  56933-2 0  9999
2 48472  53.0536 238.3663 0002255  63.6810 296.4410 15.07072299264918
STARLINK-2234           
1 48580U 21041AD  26058.25828313  .00001486  00000+0  62298-4 0  9995
2 48580  53.1618 149.4640 0001244  70.2842 289.8293 15.30202865264042
STARLINK-2701           
1 48656U 21044U   26058.29256001  .00002270  00000+0  88761-4 0  9990
2 48656  53.1605 162.1562 0001388  83.4468 276.6691 15.30194814262235
STARLINK-2748           
1 48694U 21044BJ  26057.43932914  .00001913  00000+0  76739-4 0  9996
2 48694  53.1611 130.7647 0001312  98.8833 261.2317 15.30184161262590
STARLINK-3088           
1 49163U 21082AK  26058.09358349 -.00001408  00000+0 -11267-3 0  9992
2 49163  69.9979 301.9260 0002128 284.6128  75.4794 14.97508141246029
