
    {
      "objectName": "STARLINK-2156",
      "objectId": "2021-017W",
      "noradId": 47742,
      "epochUtc": "2026-02-27T05:42:12.696480",
      "meanMotionRevPerDay": 15.30193852,
      "eccentricity": 0.00009405,
      "inclinationDeg": 53.1592,
      "raanDeg": 242.7282,
      "argPerigeeDeg": 73.7028,
      "meanAnomalyDeg": 286.4076,
      "bstar": 0.00001960565,
      "meanMotionDot": 0.00000222,
      "meanMotionDdot": 0,
      "elementSetNo": 999,
      "revAtEpoch": 27643
    },
    {
      "objectName": "STARLINK-2380",
      "objectId": "2021-018N",
      "noradId": 47799,
      "epochUtc": "2026-02-27T01:12:24.492672",
      "meanMotionRevPerDay": 15.0639972,
      "eccentricity": 0.00012802,
      "inclinationDeg": 53.0541,
      "raanDeg": 279.3804,
      "argPerigeeDeg": 92.5644,
      "meanAnomalyDeg": 267.5492,
      "bstar": 0.00012510038,
      "meanMotionDot": 0.00001582,
      "meanMotionDdot": 0,
      "elementSetNo": 999,
      "revAtEpoch": 27526
    },
    {
      "objectName": "STARLINK-2429",
      "objectId": "2021-018BD",
      "noradId": 47838,
      "epochUtc": "2026-02-27T02:14:34.340064",
      "meanMotionRevPerDay": 15.30156522,
      "eccentricity": 0.00017667,
      "inclinationDeg": 53.1598,
      "raanDeg": 294.6603,
      "argPerigeeDeg": 74.5927,
      "meanAnomalyDeg": 285.5269,
      "bstar": 0.00054151305,
      "meanMotionDot": 0.00015691,
      "meanMotionDdot": 0,
      "elementSetNo": 999,
      "revAtEpoch": 27506
    },
    {
      "objectName": "STARLINK-2273",
      "objectId": "2021-024S",
      "noradId": 47993,
      "epochUtc": "2026-02-27T02:40:11.088480",
      "meanMotionRevPerDay": 15.07425198,
      "eccentricity": 0.00013981,
      "inclinationDeg": 53.0592,
      "raanDeg": 344.0977,
      "argPerigeeDeg": 93.9903,
      "meanAnomalyDeg": 266.1246,
      "bstar": 0.0078618645,
      "meanMotionDot": 0.00122215,
      "meanMotionDdot": 0,
      "elementSetNo": 999,
      "revAtEpoch": 27352
    },
    {
      "objectName": "STARLINK-2462",
      "objectId": "2021-027AF",
      "noradId": 48121,
      "epochUtc": "2026-02-26T18:51:51.713280",
      "meanMotionRevPerDay": 15.30192274,
      "eccentricity": 0.00011842,
      "inclinationDeg": 53.1611,
      "raanDeg": 205.5764,
      "argPerigeeDeg": 90.1204,
      "meanAnomalyDeg": 269.9933,
      "bstar": 0.000097074291,
      "meanMotionDot": 0.00002516,
      "meanMotionDdot": 0,
      "elementSetNo": 999,
      "revAtEpoch": 27098
    },
    {
      "objectName": "STARLINK-2558",
      "objectId": "2021-036G",
      "noradId": 48282,
      "epochUtc": "2026-02-27T04:22:37.003008",
      "meanMotionRevPerDay": 15.3019681,
      "eccentricity": 0.0001439,
      "inclinationDeg": 53.1616,
      "raanDeg": 124.1828,
      "argPerigeeDeg": 87.7322,
      "meanAnomalyDeg": 272.3843,
      "bstar": 0.000039122782,
      "meanMotionDot": 0.00000799,
      "meanMotionDdot": 0,
      "elementSetNo": 999,
      "revAtEpoch": 26680
    },
    {
      "objectName": "STARLINK-2457",
      "objectId": "2021-036AX",
      "noradId": 48321,
      "epochUtc": "2026-02-26T15:13:57.159840",
      "meanMotionRevPerDay": 15.06395526,
      "eccentricity": 0.0001217,
      "inclinationDeg": 53.0549,
      "raanDeg": 151.2501,
      "argPerigeeDeg": 87.485,
      "meanAnomalyDeg": 272.6278,
      "bstar": 0.000086358,
      "meanMotionDot": 0.00001005,
      "meanMotionDdot": 0,
      "elementSetNo": 999,
      "revAtEpoch": 26636
    },
    {
      "objectName": "STARLINK-2610",
      "objectId": "2021-038Z",
      "noradId": 48376,
      "epochUtc": "2026-02-27T05:37:41.457504",
      "meanMotionRevPerDay": 15.29380145,
      "eccentricity": 0.00019359,
      "inclinationDeg": 53.1564,
      "raanDeg": 36.3413,
      "argPerigeeDeg": 105.9995,
      "meanAnomalyDeg": 254.1218,
      "bstar": 0.00019766725,
      "meanMotionDot": 0.00005356,
      "meanMotionDdot": 0,
      "elementSetNo": 999,
      "revAtEpoch": 26562
    },
    {
      "objectName": "STARLINK-2699",
      "objectId": "2021-040F",
      "noradId": 48433,
      "epochUtc": "2026-02-26T22:01:22.458720",
      "meanMotionRevPerDay": 15.06397849,
      "eccentricity": 0.0001178,
      "inclinationDeg": 53.0539,
      "raanDeg": 200.255,
      "argPerigeeDeg": 82.6979,
      "meanAnomalyDeg": 277.4144,
      "bstar": 0.000077371,
      "meanMotionDot": 0.00000871,
      "meanMotionDdot": 0,
      "elementSetNo": 999,
      "revAtEpoch": 26541
    },
    {
      "objectName": "STARLINK-2722",
      "objectId": "2021-040AW",
      "noradId": 48472,
      "epochUtc": "2026-02-27T06:35:12.394464",
      "meanMotionRevPerDay": 15.07072299,
      "eccentricity": 0.00022557,
      "inclinationDeg": 53.0536,
      "raanDeg": 238.3663,
      "argPerigeeDeg": 63.681,
      "meanAnomalyDeg": 296.441,
      "bstar": 0.0056932542,
      "meanMotionDot": 0.00087148,
      "meanMotionDdot": 0,
      "elementSetNo": 999,
      "revAtEpoch": 26491
    },
    {
      "objectName": "STARLINK-2234",
      "objectId": "2021-041AD",
      "noradId": 48580,
      "epochUtc": "2026-02-27T06:11:55.662432",
      "meanMotionRevPerDay": 15.30202865,
      "eccentricity": 0.00012443,
      "inclinationDeg": 53.1618,
      "raanDeg": 149.464,
      "argPerigeeDeg": 70.2842,
      "meanAnomalyDeg": 289.8293,
      "bstar": 0.000062297914,
      "meanMotionDot": 0.00001486,
      "meanMotionDdot": 0,
      "elementSetNo": 999,
      "revAtEpoch": 26404
    },
    {
      "objectName": "STARLINK-2701",
      "objectId": "2021-044U",
      "noradId": 48656,
      "epochUtc": "2026-02-27T07:01:17.184864",
      "meanMotionRevPerDay": 15.30194814,
      "eccentricity": 0.0001388,
      "inclinationDeg": 53.1605,
      "raanDeg": 162.1562,
      "argPerigeeDeg": 83.4468,
      "meanAnomalyDeg": 276.6691,
      "bstar": 0.000088760679,
      "meanMotionDot": 0.0000227,
      "meanMotionDdot": 0,
      "elementSetNo": 999,
      "revAtEpoch": 26223
    },
    {
      "objectName": "STARLINK-2748",
      "objectId": "2021-044BJ",
      "noradId": 48694,
      "epochUtc": "2026-02-26T10:32:38.037696",
      "meanMotionRevPerDay": 15.30184161,
      "eccentricity": 0.0001312,
      "inclinationDeg": 53.1611,
      "raanDeg": 130.7647,
      "argPerigeeDeg": 98.8833,
      "meanAnomalyDeg": 261.2317,
      "bstar": 0.000076739,
      "meanMotionDot": 0.00001913,
      "meanMotionDdot": 0,
      "elementSetNo": 999,
      "revAtEpoch": 26259
    },
    {
      "objectName": "STARLINK-3088",
      "objectId": "2021-082AK",
      "noradId": 49163,
      "epochUtc": "2026-02-27T02:14:45.613536",
      "meanMotionRevPerDay": 14.97508141,
      "eccentricity": 0.00021282,
      "inclinationDeg": 69.9979,
      "raanDeg": 301.926,
      "argPerigeeDeg": 284.6128,
      "meanAnomalyDeg": 75.4794,
      "bstar": -0.00011266696,
      "meanMotionDot": -0.00001408,
      "meanMotionDdot": 0,
      "elementSetNo": 999,
      "revAtEpoch": 24602
    }